start=new Date('2022-03-22T00:00:00.000Z').valueOf();
sats=[{"CLASSIFICATION_TYPE":"U","BSTAR":"-0.00009214800000","DECAY_DATE":null,"OBJECT_TYPE":"PAYLOAD","OBJECT_NAME":"STARLINK-1934","TLE_LINE2":"2 46792  53.0548 335.6287 0001942  47.4503 312.6649 15.06403249 78110","NORAD_CAT_ID":"46792","ECCENTRICITY":"0.00019420","MEAN_MOTION_DOT":"-0.00001654","TIME_SYSTEM":"UTC","FILE":"3368664","LAUNCH_DATE":"2020-10-24","OBJECT_ID":"2020-074BF","EPHEMERIS_TYPE":"0","SITE":"AFETR","GP_ID":"199296675","PERIOD":"95.592","MEAN_ANOMALY":"312.6649","MEAN_MOTION_DDOT":"0.0000000000000","INCLINATION":"53.0548","REF_FRAME":"TEME","MEAN_ELEMENT_THEORY":"SGP4","REV_AT_EPOCH":"7811","ELEMENT_SET_NO":"999","RA_OF_ASC_NODE":"335.6287","MEAN_MOTION":"15.06403249","EPOCH":"2022-03-21T20:48:11.369664","SEMIMAJOR_AXIS":"6925.339","COUNTRY_CODE":"US","RCS_SIZE":"LARGE","TLE_LINE1":"1 46792U 20074BF  22080.86679826 -.00001654  00000-0 -92148-4 0  9991","PERIAPSIS":"545.859","APOAPSIS":"548.549","ARG_OF_PERICENTER":"47.4503","CENTER_NAME":"EARTH"},{"ARG_OF_PERICENTER":"58.0272","CENTER_NAME":"EARTH","PERIAPSIS":"545.986","APOAPSIS":"548.409","TLE_LINE1":"1 46793U 20074BG  22080.89535919  .00002316  00000-0  17431-3 0  9994","RA_OF_ASC_NODE":"345.5127","MEAN_MOTION":"15.06405235","SEMIMAJOR_AXIS":"6925.333","COUNTRY_CODE":"US","RCS_SIZE":"LARGE","EPOCH":"2022-03-21T21:29:19.034016","INCLINATION":"53.0551","ELEMENT_SET_NO":"999","REV_AT_EPOCH":"7830","REF_FRAME":"TEME","MEAN_ELEMENT_THEORY":"SGP4","EPHEMERIS_TYPE":"0","SITE":"AFETR","OBJECT_ID":"2020-074BG","LAUNCH_DATE":"2020-10-24","MEAN_ANOMALY":"302.0887","MEAN_MOTION_DDOT":"0.0000000000000","GP_ID":"199348075","PERIOD":"95.592","FILE":"3368836","TLE_LINE2":"2 46793  53.0551 345.5127 0001750  58.0272 302.0887 15.06405235 78301","MEAN_MOTION_DOT":"0.00002316","TIME_SYSTEM":"UTC","NORAD_CAT_ID":"46793","ECCENTRICITY":"0.00017500","DECAY_DATE":null,"BSTAR":"0.00017431000000","OBJECT_TYPE":"PAYLOAD","CLASSIFICATION_TYPE":"U","OBJECT_NAME":"STARLINK-1941"},{"INCLINATION":"53.0561","REV_AT_EPOCH":"7831","ELEMENT_SET_NO":"999","REF_FRAME":"TEME","MEAN_ELEMENT_THEORY":"SGP4","MEAN_MOTION":"15.06402089","RA_OF_ASC_NODE":"345.4821","COUNTRY_CODE":"US","RCS_SIZE":"LARGE","SEMIMAJOR_AXIS":"6925.342","EPOCH":"2022-03-21T21:39:56.401632","APOAPSIS":"548.409","PERIAPSIS":"546.006","TLE_LINE1":"1 46794U 20074BH  22080.90273613  .00000053  00000-0  22437-4 0  9996","ARG_OF_PERICENTER":"56.8377","CENTER_NAME":"EARTH","OBJECT_TYPE":"PAYLOAD","BSTAR":"0.00002243700000","DECAY_DATE":null,"CLASSIFICATION_TYPE":"U","OBJECT_NAME":"STARLINK-1942","TLE_LINE2":"2 46794  53.0561 345.4821 0001735  56.8377 303.2778 15.06402089 78315","TIME_SYSTEM":"UTC","MEAN_MOTION_DOT":"0.00000053","ECCENTRICITY":"0.00017350","NORAD_CAT_ID":"46794","FILE":"3368836","SITE":"AFETR","EPHEMERIS_TYPE":"0","OBJECT_ID":"2020-074BH","LAUNCH_DATE":"2020-10-24","MEAN_MOTION_DDOT":"0.0000000000000","MEAN_ANOMALY":"303.2778","PERIOD":"95.592","GP_ID":"199348824"},{"FILE":"3368836","LAUNCH_DATE":"2020-10-24","OBJECT_ID":"2020-074BK","SITE":"AFETR","EPHEMERIS_TYPE":"0","PERIOD":"95.592","GP_ID":"199347074","MEAN_MOTION_DDOT":"0.0000000000000","MEAN_ANOMALY":"309.9466","CLASSIFICATION_TYPE":"U","OBJECT_TYPE":"PAYLOAD","BSTAR":"0.00018137000000","DECAY_DATE":null,"OBJECT_NAME":"STARLINK-1944","TLE_LINE2":"2 46796  53.0562 335.5965 0001888  50.1689 309.9466 15.06408626 78443","ECCENTRICITY":"0.00018880","NORAD_CAT_ID":"46796","TIME_SYSTEM":"UTC","MEAN_MOTION_DOT":"0.00002421","TLE_LINE1":"1 46796U 20074BK  22080.87784863  .00002421  00000-0  18137-3 0  9990","APOAPSIS":"548.495","PERIAPSIS":"545.880","ARG_OF_PERICENTER":"50.1689","CENTER_NAME":"EARTH","INCLINATION":"53.0562","MEAN_ELEMENT_THEORY":"SGP4","REF_FRAME":"TEME","REV_AT_EPOCH":"7844","ELEMENT_SET_NO":"999","RA_OF_ASC_NODE":"335.5965","MEAN_MOTION":"15.06408626","EPOCH":"2022-03-21T21:04:06.121632","RCS_SIZE":"LARGE","COUNTRY_CODE":"US","SEMIMAJOR_AXIS":"6925.322"},{"PERIAPSIS":"332.024","APOAPSIS":"343.100","TLE_LINE1":"1 46797U 20074BL  22080.73657251  .00224979  00000-0  12958-2 0  9994","ARG_OF_PERICENTER":"276.3049","CENTER_NAME":"EARTH","INCLINATION":"53.0497","REV_AT_EPOCH":"7963","ELEMENT_SET_NO":"999","REF_FRAME":"TEME","MEAN_ELEMENT_THEORY":"SGP4","RA_OF_ASC_NODE":"250.7042","MEAN_MOTION":"15.77488279","SEMIMAJOR_AXIS":"6715.697","RCS_SIZE":"LARGE","COUNTRY_CODE":"US","EPOCH":"2022-03-21T17:40:39.864864","FILE":"3368836","EPHEMERIS_TYPE":"0","SITE":"AFETR","OBJECT_ID":"2020-074BL","LAUNCH_DATE":"2020-10-24","MEAN_ANOMALY":"83.7031","MEAN_MOTION_DDOT":"0.0000000000000","GP_ID":"199347324","PERIOD":"91.284","DECAY_DATE":null,"BSTAR":"0.00129580000000","OBJECT_TYPE":"PAYLOAD","CLASSIFICATION_TYPE":"U","OBJECT_NAME":"STARLINK-1947","TLE_LINE2":"2 46797  53.0497 250.7042 0008246 276.3049  83.7031 15.77488279 79639","MEAN_MOTION_DOT":"0.00224979","TIME_SYSTEM":"UTC","NORAD_CAT_ID":"46797","ECCENTRICITY":"0.00082460"},{"REV_AT_EPOCH":"7809","ELEMENT_SET_NO":"999","REF_FRAME":"TEME","MEAN_ELEMENT_THEORY":"SGP4","INCLINATION":"53.0557","SEMIMAJOR_AXIS":"6925.321","RCS_SIZE":"LARGE","COUNTRY_CODE":"US","EPOCH":"2022-03-21T20:14:18.628224","MEAN_MOTION":"15.06408918","RA_OF_ASC_NODE":"0.7501","PERIAPSIS":"545.983","APOAPSIS":"548.390","TLE_LINE1":"1 46798U 20074BM  22080.84327116  .00003297  00000-0  24010-3 0  9992","CENTER_NAME":"EARTH","ARG_OF_PERICENTER":"61.1092","OBJECT_NAME":"STARLINK-1948","DECAY_DATE":null,"BSTAR":"0.00024010000000","OBJECT_TYPE":"PAYLOAD","CLASSIFICATION_TYPE":"U","MEAN_MOTION_DOT":"0.00003297","TIME_SYSTEM":"UTC","NORAD_CAT_ID":"46798","ECCENTRICITY":"0.00017380","TLE_LINE2":"2 46798  53.0557   0.7501 0001738  61.1092 299.0071 15.06408918 78096","FILE":"3368836","MEAN_ANOMALY":"299.0071","MEAN_MOTION_DDOT":"0.0000000000000","GP_ID":"199348574","PERIOD":"95.592","EPHEMERIS_TYPE":"0","SITE":"AFETR","OBJECT_ID":"2020-074BM","LAUNCH_DATE":"2020-10-24"},{"FILE":"3368836","LAUNCH_DATE":"2020-11-25","OBJECT_ID":"2020-088A","SITE":"AFETR","EPHEMERIS_TYPE":"0","PERIOD":"95.592","GP_ID":"199348862","MEAN_MOTION_DDOT":"0.0000000000000","MEAN_ANOMALY":"279.5376","CLASSIFICATION_TYPE":"U","OBJECT_TYPE":"PAYLOAD","DECAY_DATE":null,"BSTAR":"0.00000889810000","OBJECT_NAME":"STARLINK-1777","TLE_LINE2":"2 47122  53.0558 325.6420 0001673  80.5802 279.5376 15.06397121 73460","ECCENTRICITY":"0.00016730","NORAD_CAT_ID":"47122","TIME_SYSTEM":"UTC","MEAN_MOTION_DOT":"-0.00000149","TLE_LINE1":"1 47122U 20088A   22080.86403561 -.00000149  00000-0  88981-5 0  9993","APOAPSIS":"548.381","PERIAPSIS":"546.064","ARG_OF_PERICENTER":"80.5802","CENTER_NAME":"EARTH","INCLINATION":"53.0558","REF_FRAME":"TEME","MEAN_ELEMENT_THEORY":"SGP4","REV_AT_EPOCH":"7346","ELEMENT_SET_NO":"999","RA_OF_ASC_NODE":"325.6420","MEAN_MOTION":"15.06397121","EPOCH":"2022-03-21T20:44:12.676704","COUNTRY_CODE":"US","RCS_SIZE":"LARGE","SEMIMAJOR_AXIS":"6925.357"},{"APOAPSIS":"548.175","PERIAPSIS":"546.244","TLE_LINE1":"1 47124U 20088C   22080.91607344  .00001295  00000-0  10578-3 0  9993","CENTER_NAME":"EARTH","ARG_OF_PERICENTER":"77.3430","ELEMENT_SET_NO":"999","REV_AT_EPOCH":"7340","MEAN_ELEMENT_THEORY":"SGP4","REF_FRAME":"TEME","INCLINATION":"53.0547","RCS_SIZE":"LARGE","COUNTRY_CODE":"US","SEMIMAJOR_AXIS":"6925.344","EPOCH":"2022-03-21T21:59:08.745216","MEAN_MOTION":"15.06401451","RA_OF_ASC_NODE":"330.4213","FILE":"3368836","MEAN_MOTION_DDOT":"0.0000000000000","MEAN_ANOMALY":"282.7715","PERIOD":"95.592","GP_ID":"199347112","SITE":"AFETR","EPHEMERIS_TYPE":"0","LAUNCH_DATE":"2020-11-25","OBJECT_ID":"2020-088C","OBJECT_NAME":"STARLINK-1785","OBJECT_TYPE":"PAYLOAD","DECAY_DATE":null,"BSTAR":"0.00010578000000","CLASSIFICATION_TYPE":"U","TIME_SYSTEM":"UTC","MEAN_MOTION_DOT":"0.00001295","ECCENTRICITY":"0.00013940","NORAD_CAT_ID":"47124","TLE_LINE2":"2 47124  53.0547 330.4213 0001394  77.3430 282.7715 15.06401451 73404"},{"TLE_LINE2":"2 47126  53.0551 325.5280 0001356  63.6752 296.4376 15.06398846 73478","NORAD_CAT_ID":"47126","ECCENTRICITY":"0.00013560","MEAN_MOTION_DOT":"0.00000491","TIME_SYSTEM":"UTC","CLASSIFICATION_TYPE":"U","DECAY_DATE":null,"BSTAR":"0.00005183000000","OBJECT_TYPE":"PAYLOAD","OBJECT_NAME":"STARLINK-1812","LAUNCH_DATE":"2020-11-25","OBJECT_ID":"2020-088E","EPHEMERIS_TYPE":"0","SITE":"AFETR","GP_ID":"199347362","PERIOD":"95.592","MEAN_ANOMALY":"296.4376","MEAN_MOTION_DDOT":"0.0000000000000","FILE":"3368836","MEAN_MOTION":"15.06398846","RA_OF_ASC_NODE":"325.5280","EPOCH":"2022-03-21T21:21:21.984192","SEMIMAJOR_AXIS":"6925.352","RCS_SIZE":"LARGE","COUNTRY_CODE":"US","INCLINATION":"53.0551","REF_FRAME":"TEME","MEAN_ELEMENT_THEORY":"SGP4","REV_AT_EPOCH":"7347","ELEMENT_SET_NO":"999","ARG_OF_PERICENTER":"63.6752","CENTER_NAME":"EARTH","TLE_LINE1":"1 47126U 20088E   22080.88983778  .00000491  00000-0  51830-4 0  9993","PERIAPSIS":"546.278","APOAPSIS":"548.156"},{"NORAD_CAT_ID":"47128","ECCENTRICITY":"0.00015360","MEAN_MOTION_DOT":"0.00001352","TIME_SYSTEM":"UTC","TLE_LINE2":"2 47128  53.0547 305.4326 0001536  68.7342 291.3811 15.06404210 73756","OBJECT_NAME":"STARLINK-1837","CLASSIFICATION_TYPE":"U","BSTAR":"0.00010965000000","DECAY_DATE":null,"OBJECT_TYPE":"PAYLOAD","GP_ID":"199348612","PERIOD":"95.592","MEAN_ANOMALY":"291.3811","MEAN_MOTION_DDOT":"0.0000000000000","OBJECT_ID":"2020-088G","LAUNCH_DATE":"2020-11-25","EPHEMERIS_TYPE":"0","SITE":"AFETR","FILE":"3368836","EPOCH":"2022-03-21T21:55:51.540672","SEMIMAJOR_AXIS":"6925.336","COUNTRY_CODE":"US","RCS_SIZE":"LARGE","RA_OF_ASC_NODE":"305.4326","MEAN_MOTION":"15.06404210","REF_FRAME":"TEME","MEAN_ELEMENT_THEORY":"SGP4","ELEMENT_SET_NO":"999","REV_AT_EPOCH":"7375","INCLINATION":"53.0547","CENTER_NAME":"EARTH","ARG_OF_PERICENTER":"68.7342","TLE_LINE1":"1 47128U 20088G   22080.91379098  .00001352  00000-0  10965-3 0  9993","PERIAPSIS":"546.137","APOAPSIS":"548.264"}];
